{
  "type": "FeatureCollection",
  "features": [
    {
      "type": "Feature",
      "properties": {
        "norad_id": 40069,
        "name": "METEOR-M 2",
        "group": "weather",
        "lat": -64.66240772388187,
        "lon": -21.692458314950372,
        "alt_km": 826.6349329551404,
        "timestamp": "2025-12-08T03:50:06.648603+00:00",
        "meta_object_name": "METEOR-M 2",
        "meta_object_id": "2014-037A",
        "meta_epoch": "2025-12-07T06:10:57.161856",
        "meta_mean_motion": 14.21383258,
        "meta_eccentricity": 0.00048214,
        "meta_inclination": 98.4897,
        "meta_ra_of_asc_node": 319.0525,
        "meta_arg_of_pericenter": 227.4415,
        "meta_mean_anomaly": 132.6357,
        "meta_ephemeris_type": 0,
        "meta_classification_type": "U",
        "meta_norad_cat_id": 40069,
        "meta_element_set_no": 999,
        "meta_rev_at_epoch": 59205,
        "meta_bstar": 0.00014905469,
        "meta_mean_motion_dot": 2.84e-06,
        "meta_mean_motion_ddot": 0,
        "tle_line1": "1 40069U 14037A   25341.25760604  .00000284  00000+0  14905-3 0  9994",
        "tle_line2": "2 40069  98.4897 319.0525 0004821 227.4415 132.6357 14.21383258592056"
      },
      "geometry": {
        "type": "Point",
        "coordinates": [
          -21.692458314950372,
          -64.66240772388187
        ]
      }
    },
    {
      "type": "Feature",
      "properties": {
        "norad_id": 40267,
        "name": "HIMAWARI-8",
        "group": "weather",
        "lat": -0.0012140978400624895,
        "lon": -84.64737812615064,
        "alt_km": 35781.255895487855,
        "timestamp": "2025-12-08T03:50:06.648616+00:00",
        "meta_object_name": "HIMAWARI-8",
        "meta_object_id": "2014-060A",
        "meta_epoch": "2025-12-07T05:44:37.813920",
        "meta_mean_motion": 1.00269573,
        "meta_eccentricity": 0.00013433,
        "meta_inclination": 0.051,
        "meta_ra_of_asc_node": 137.6065,
        "meta_arg_of_pericenter": 150.3064,
        "meta_mean_anomaly": 15.179,
        "meta_ephemeris_type": 0,
        "meta_classification_type": "U",
        "meta_norad_cat_id": 40267,
        "meta_element_set_no": 999,
        "meta_rev_at_epoch": 4083,
        "meta_bstar": 0,
        "meta_mean_motion_dot": -2.71e-06,
        "meta_mean_motion_ddot": 0,
        "tle_line1": "1 40267U 14060A   25341.23932655 -.00000271  00000+0  00000+0 0  9999",
        "tle_line2": "2 40267   0.0510 137.6065 0001343 150.3064  15.1790  1.00269573 40836"
      },
      "geometry": {
        "type": "Point",
        "coordinates": [
          -84.64737812615064,
          -0.0012140978400624895
        ]
      }
    },
    {
      "type": "Feature",
      "properties": {
        "norad_id": 40367,
        "name": "FENGYUN 2G",
        "group": "weather",
        "lat": 1.8111284744446516,
        "lon": -125.60603856832343,
        "alt_km": 35776.94651858363,
        "timestamp": "2025-12-08T03:50:06.648627+00:00",
        "meta_object_name": "FENGYUN 2G",
        "meta_object_id": "2014-090A",
        "meta_epoch": "2025-12-06T19:16:31.950048",
        "meta_mean_motion": 1.00266143,
        "meta_eccentricity": 0.00031469,
        "meta_inclination": 5.1526,
        "meta_ra_of_asc_node": 75.1659,
        "meta_arg_of_pericenter": 196.1642,
        "meta_mean_anomaly": 193.3036,
        "meta_ephemeris_type": 0,
        "meta_classification_type": "U",
        "meta_norad_cat_id": 40367,
        "meta_element_set_no": 999,
        "meta_rev_at_epoch": 4007,
        "meta_bstar": 0,
        "meta_mean_motion_dot": -2.98e-06,
        "meta_mean_motion_ddot": 0,
        "tle_line1": "1 40367U 14090A   25340.80314757 -.00000298  00000+0  00000+0 0  9991",
        "tle_line2": "2 40367   5.1526  75.1659 0003146 196.1642 193.3036  1.00266143 40076"
      },
      "geometry": {
        "type": "Point",
        "coordinates": [
          -125.60603856832343,
          1.8111284744446516
        ]
      }
    },
    {
      "type": "Feature",
      "properties": {
        "norad_id": 40732,
        "name": "METEOSAT-11 (MSG-4)",
        "group": "weather",
        "lat": 2.599918868478441,
        "lon": 144.03816767562594,
        "alt_km": 35784.598923872734,
        "timestamp": "2025-12-08T03:50:06.648639+00:00",
        "meta_object_name": "METEOSAT-11 (MSG-4)",
        "meta_object_id": "2015-034A",
        "meta_epoch": "2025-12-07T06:49:54.062400",
        "meta_mean_motion": 1.00265783,
        "meta_eccentricity": 9.749e-05,
        "meta_inclination": 2.7217,
        "meta_ra_of_asc_node": 72.0176,
        "meta_arg_of_pericenter": 119.5129,
        "meta_mean_anomaly": 356.6402,
        "meta_ephemeris_type": 0,
        "meta_classification_type": "U",
        "meta_norad_cat_id": 40732,
        "meta_element_set_no": 999,
        "meta_rev_at_epoch": 529,
        "meta_bstar": 0,
        "meta_mean_motion_dot": 6.5e-07,
        "meta_mean_motion_ddot": 0,
        "tle_line1": "1 40732U 15034A   25341.28465350  .00000065  00000+0  00000+0 0  9996",
        "tle_line2": "2 40732   2.7217  72.0176 0000974 119.5129 356.6402  1.00265783  5292"
      },
      "geometry": {
        "type": "Point",
        "coordinates": [
          144.03816767562594,
          2.599918868478441
        ]
      }
    },
    {
      "type": "Feature",
      "properties": {
        "norad_id": 41105,
        "name": "ELEKTRO-L 2",
        "group": "weather",
        "lat": 4.580214992729942,
        "lon": 120.00237713363668,
        "alt_km": 35800.30634727365,
        "timestamp": "2025-12-08T03:50:06.648652+00:00",
        "meta_object_name": "ELEKTRO-L 2",
        "meta_object_id": "2015-074A",
        "meta_epoch": "2025-12-07T01:34:48.213120",
        "meta_mean_motion": 1.00272049,
        "meta_eccentricity": 0.00039152,
        "meta_inclination": 6.2111,
        "meta_ra_of_asc_node": 72.8948,
        "meta_arg_of_pericenter": 201.1648,
        "meta_mean_anomaly": 171.2246,
        "meta_ephemeris_type": 0,
        "meta_classification_type": "U",
        "meta_norad_cat_id": 41105,
        "meta_element_set_no": 999,
        "meta_rev_at_epoch": 3658,
        "meta_bstar": 0,
        "meta_mean_motion_dot": -1.15e-06,
        "meta_mean_motion_ddot": 0,
        "tle_line1": "1 41105U 15074A   25341.06583580 -.00000115  00000+0  00000+0 0  9994",
        "tle_line2": "2 41105   6.2111  72.8948 0003915 201.1648 171.2246  1.00272049 36582"
      },
      "geometry": {
        "type": "Point",
        "coordinates": [
          120.00237713363668,
          4.580214992729942
        ]
      }
    },
    {
      "type": "Feature",
      "properties": {
        "norad_id": 41752,
        "name": "INSAT-3DR",
        "group": "weather",
        "lat": 0.047993859837551604,
        "lon": -151.4434731868793,
        "alt_km": 35756.72597831516,
        "timestamp": "2025-12-08T03:50:06.648666+00:00",
        "meta_object_name": "INSAT-3DR",
        "meta_object_id": "2016-054A",
        "meta_epoch": "2025-12-07T03:42:49.480704",
        "meta_mean_motion": 1.00269915,
        "meta_eccentricity": 0.0014554,
        "meta_inclination": 0.0783,
        "meta_ra_of_asc_node": 87.3338,
        "meta_arg_of_pericenter": 182.3938,
        "meta_mean_anomaly": 296.1754,
        "meta_ephemeris_type": 0,
        "meta_classification_type": "U",
        "meta_norad_cat_id": 41752,
        "meta_element_set_no": 999,
        "meta_rev_at_epoch": 3389,
        "meta_bstar": 0,
        "meta_mean_motion_dot": -7.2e-07,
        "meta_mean_motion_ddot": 0,
        "tle_line1": "1 41752U 16054A   25341.15473936 -.00000072  00000+0  00000+0 0  9996",
        "tle_line2": "2 41752   0.0783  87.3338 0014554 182.3938 296.1754  1.00269915 33894"
      },
      "geometry": {
        "type": "Point",
        "coordinates": [
          -151.4434731868793,
          0.047993859837551604
        ]
      }
    },
    {
      "type": "Feature",
      "properties": {
        "norad_id": 41836,
        "name": "HIMAWARI-9",
        "group": "weather",
        "lat": -0.0219940635656814,
        "lon": -84.53086986834998,
        "alt_km": 35779.23597731157,
        "timestamp": "2025-12-08T03:50:06.648679+00:00",
        "meta_object_name": "HIMAWARI-9",
        "meta_object_id": "2016-064A",
        "meta_epoch": "2025-12-06T21:52:38.561088",
        "meta_mean_motion": 1.00273563,
        "meta_eccentricity": 0.00015412,
        "meta_inclination": 0.0141,
        "meta_ra_of_asc_node": 56.4298,
        "meta_arg_of_pericenter": 225.2195,
        "meta_mean_anomaly": 263.2228,
        "meta_ephemeris_type": 0,
        "meta_classification_type": "U",
        "meta_norad_cat_id": 41836,
        "meta_element_set_no": 999,
        "meta_rev_at_epoch": 3328,
        "meta_bstar": 0,
        "meta_mean_motion_dot": -2.69e-06,
        "meta_mean_motion_ddot": 0,
        "tle_line1": "1 41836U 16064A   25340.91155742 -.00000269  00000+0  00000+0 0  9993",
        "tle_line2": "2 41836   0.0141  56.4298 0001541 225.2195 263.2228  1.00273563 33289"
      },
      "geometry": {
        "type": "Point",
        "coordinates": [
          -84.53086986834998,
          -0.0219940635656814
        ]
      }
    }
  ]
}